ONEWEB-0403             
1 50483U 21132Q   26191.33656120  .00000079  00000+0  16684-3 0  9997
2 50483  87.9189 330.8521 0001816  92.4719 267.6621 13.18686252224644
ONEWEB-0404             
1 50484U 21132R   26190.99163932 -.00000201  00000+0 -60419-3 0  9997
2 50484  87.8890  16.5272 0001952  78.8054 281.3293 13.11414093218685
ONEWEB-0405             
1 50485U 21132S   26190.66715064  .00000072  00000+0  14940-3 0  9993
2 50485  87.9190 330.9705 0002334 100.1253 260.0143 13.18683913224950
ONEWEB-0406             
1 50486U 21132T   26191.34161494  .00000079  00000+0  16690-3 0  9993
2 50486  87.9187 330.8513 0001862  80.9087 279.2255 13.18686522224672
ONEWEB-0407             
1 50487U 21132U   26190.65197549  .00000032  00000+0  48734-4 0  9991
2 50487  87.9192 330.9814 0001880 103.9526 256.1815 13.18688005224526
ONEWEB-0409             
1 50488U 21132V   26190.53216764 -.00000272  00000+0 -80245-3 0  9990
2 50488  87.8879  16.6071 0001924  80.1953 279.9392 13.11414453218512
ONEWEB-0412             
1 50489U 21132W   26191.32306809  .00000048  00000+0  88564-4 0  9991
2 50489  87.9188 330.8558 0001599 102.2493 257.8818 13.18686715224706
ONEWEB-0413             
1 50490U 21132X   26191.32812737  .00000075  00000+0  15870-3 0  9994
2 50490  87.9179 330.8515 0001723 106.0024 254.1298 13.18687795224646
ONEWEB-0414             
1 50491U 21132Y   26190.63006322  .00000061  00000+0  12092-3 0  9991
2 50491  87.9191 330.9741 0001722  97.6650 262.4678 13.18686828224585
ONEWEB-0417             
1 50492U 21132Z   26191.39725602  .00000011  00000+0 -55484-5 0  9995
2 50492  87.9182 330.8400 0001903  89.6892 270.4458 13.18686802224663
ONEWEB-0418             
1 50493U 21132AA  26191.33135689  .00000072  00000+0  14896-3 0  9996
2 50493  87.9186 330.8538 0001944  89.1636 270.9718 13.18686090224715
ONEWEB-0419             
1 50494U 21132AB  26191.35030929  .00000044  00000+0  78980-4 0  9994
2 50494  87.9190 330.8507 0002147  94.3444 265.7934 13.18666076224633
ONEWEB-0420             
1 50495U 21132AC  26191.39050008  .00000024  00000+0  29253-4 0  9996
2 50495  87.9183 330.8430 0001925 104.2690 255.8656 13.18687255224631
ONEWEB-0421             
1 50496U 21132AD  26191.38377831  .00000022  00000+0  23171-4 0  9993
2 50496  87.9186 330.8428 0001490  96.3888 263.7414 13.18686083224671
ONEWEB-0424             
1 50497U 21132AE  26191.34499152  .00000067  00000+0  13837-3 0  9997
2 50497  87.9187 330.8497 0002238  94.9393 265.1994 13.18686471224697
ONEWEB-0426             
1 50498U 21132AF  26190.62079146  .00000017  00000+0  97901-5 0  9996
2 50498  87.9187 330.9851 0001501  74.1664 285.9633 13.18685785224547
